{
  "norad_id": 58990,
  "name": "INSAT-3DS",
  "history": [
    {
      "epoch": "2026-03-28T22:01:16.464288Z",
      "apogee_km": 35795.32080889437,
      "perigee_km": 35777.98349089172,
      "latitude_deg": 0.03132531013199999,
      "longitude_deg": 82.07164395284512,
      "height_km": 35791.43483112693,
      "semi_major_axis_km": 42164.78914989305,
      "eccentricity": 0.00020559,
      "inclination_deg": 0.0168,
      "raan_deg": 129.3952,
      "arg_perigee_deg": 236.8533,
      "mean_anomaly_deg": 232.4682,
      "mean_motion_rev_day": 1.00271581
    },
    {
      "epoch": "2026-03-29T01:26:34.196928Z",
      "apogee_km": 35795.32684899582,
      "perigee_km": 35777.980254162896,
      "latitude_deg": 0.021140954243765737,
      "longitude_deg": 82.0673613040586,
      "height_km": 35784.07684959351,
      "semi_major_axis_km": 42164.79055157936,
      "eccentricity": 0.0002057,
      "inclination_deg": 0.0175,
      "raan_deg": 129.1326,
      "arg_perigee_deg": 237.418,
      "mean_anomaly_deg": 283.6305,
      "mean_motion_rev_day": 1.00271576
    },
    {
      "epoch": "2026-03-30T03:06:42.650784Z",
      "apogee_km": 35795.3898052377,
      "perigee_km": 35777.92514736562,
      "latitude_deg": 0.007334501549951304,
      "longitude_deg": 82.0699240841884,
      "height_km": 35780.781711067604,
      "semi_major_axis_km": 42164.794476301664,
      "eccentricity": 0.0002071,
      "inclination_deg": 0.0212,
      "raan_deg": 121.1156,
      "arg_perigee_deg": 247.5455,
      "mean_anomaly_deg": 307.6092,
      "mean_motion_rev_day": 1.00271562
    }
  ]
}